LEMUR-2-ROUNDTRIPPER    
1 62711U 25009DG  26173.48338833  .00006405  00000+0  46949-3 0  9991
2 62711  97.7247 256.1558 0005717 117.0913 243.0896 15.03863172 78428
LEMUR-2-MYNAMEISJEFF    
1 62712U 25009DH  26173.68139294  .00005977  00000+0  43843-3 0  9997
2 62712  97.7294 256.7380 0004023 138.8001 221.3528 15.03867406 78456
LEMUR-2-LEIA-PHILIP     
1 63246U 25052AN  26173.48271427  .00000538  00000+0  51349-4 0  9990
2 63246  97.6828  65.3448 0003166 193.1412 166.9728 14.97326147 69468
LEMUR-2-LIA-MARTIN      
1 63248U 25052AQ  26173.41922098  .00002893  00000+0  25097-3 0  9998
2 63248  97.6878  65.7646 0003298 150.1104 210.0307 14.97832208 69460
LEMUR-2-DELOITTE-1      
1 63259U 25052BB  26173.46310879  .00002843  00000+0  24801-3 0  9990
2 63259  97.6927  66.1372 0003454  85.3816 274.7800 14.97637991 69480
LEMUR-2-EMERSONROSE     
1 63261U 25052BD  26173.49985315  .00002874  00000+0  24134-3 0  9992
2 63261  97.6877  66.7413 0001814  74.5607 285.5816 14.99109077 69539
LEMUR-2-MARACHE-FRAN    
1 63262U 25052BE  26173.27143083  .00003396  00000+0  27681-3 0  9997
2 63262  97.6932  66.8440 0004886   2.8465 357.2785 15.00139833 69528
LEMUR-2-THEFALCONER     
1 63264U 25052BG  26173.69073146  .00002254  00000+0  19878-3 0  9998
2 63264  97.6849  65.9756 0001978  18.8556 341.2739 14.97413124 69518
LEMUR-2-UNTITLED-SC     
1 63351U 25061A   26173.64229757  .00002291  00000+0  13132-3 0  9999
2 63351  97.5637 148.9641 0017072 243.8371 116.1105 15.13505962 68416
LEMUR-2-ESPERANZA       
1 63352U 25061B   26172.89189628  .00002562  00000+0  14605-3 0  9995
2 63352  97.5644 148.3137 0016646 245.8481 114.1010 15.13593116 68308
LEMUR-2-KREMPEL-BRO2    
1 63353U 25061C   26173.64451119  .00002372  00000+0  13380-3 0  9995
2 63353  97.5692 149.6013 0017732 234.8649 125.0921 15.14035741 68432
LEMUR-2-THERMORAPTOR    
1 63354U 25061D   26173.56020655  .00002760  00000+0  15476-3 0  9993
2 63354  97.5696 149.5942 0017446 234.0711 125.8902 15.14114910 68423
LEMUR-2-NEUROSPICY      
1 63355U 25061E   26173.72971647  .00002758  00000+0  15425-3 0  9999
2 63355  97.5622 149.3848 0015269 236.8231 123.1537 15.14232766 68452
LEMUR-2-TILLINFINITY    
1 63356U 25061F   26173.82889843  .00002863  00000+0  15730-3 0  9993
2 63356  97.5608 149.7777 0016722 223.7957 136.1950 15.14817914 68498
LEMUR-2-KREMPEL-BRO1    
1 63357U 25061G   26173.67096415  .00002916  00000+0  16095-3 0  9996
2 63357  97.5610 149.5353 0017351 225.8312 134.1494 15.14622915 68460
LEMUR-2-LANGER2SPACE    
1 63358U 25061H   26173.16993685  .00002538  00000+0  14192-3 0  9992
2 63358  97.5615 148.8492 0015127 237.2429 122.7346 15.14315907 68376
LEMUR-2-BALTO           
1 63395U 25052BH  26173.52296787  .00004615  00000+0  37435-3 0  9995
2 63395  97.6907  67.0687 0006812  44.1627 316.0140 15.00136900 69567
LEMUR-2-KRISH           
1 64561U 25135AK  26173.29069233  .00002850  00000+0  25769-3 0  9997
2 64561  97.7748 288.1321 0001448  95.6978 264.4409 14.96246010 54687
LEMUR-2-HUBBLE-4        
1 64565U 25135AP  26173.56430873  .00000766  00000+0  78717-4 0  9999
2 64565  97.7703 287.4048 0000906 260.8622  99.2495 14.93209681 54678
LEMUR-2-SEJONG-2        
1 64586U 25135BL  26173.78699921  .00003168  00000+0  28228-3 0  9997
2 64586  97.7683 288.7692 0003232 316.1250  43.9714 14.96730485 54780
LEMUR-2-HUBBLE-5        
1 64840U 25135BT  26173.31409791  .00001191  00000+0  11664-3 0  9993
2 64840  97.7721 287.8002 0004639 334.5529  25.5462 14.94147176 54677
LEMUR-2-KARENDARRELL    
1 64841U 25135BU  26173.32093806  .00005809  00000+0  46932-3 0  9997
2 64841  97.7677 289.5201 0010105 182.3814 177.7363 15.00170832 54784
LEMUR-2-LUCILLE-ROSE    
1 65403U 25135BV  26173.56130149  .00004804  00000+0  38854-3 0  9998
2 65403  97.7754 289.7860 0011804 262.7012  97.2870 15.00206464 49445
LEMUR-2-AFFIE-WAUWIE    
1 66295U 25248C   26173.48480047  .00017084  00000+0  63600-3 0  9990
2 66295  45.3928  86.2834 0007327 120.6952 239.4660 15.27320502 35405
LEMUR-2-DEANANDMAEVE    
1 66678U 25276N   26173.45034275  .00004612  00000+0  21857-3 0  9992
2 66678  97.4210 246.8388 0005185 356.0746   4.0447 15.19785277 31215
LEMUR-2-STAS-GORBUK     
1 66686U 25276W   26173.20265358  .00004178  00000+0  20040-3 0  9992
2 66686  97.4242 246.6495 0004537 357.7923   2.3291 15.19423763 31173
LEMUR-2-TEODOR          
1 66768U 25276DG  26173.44407598  .00004093  00000+0  18717-3 0  9997
2 66768  97.4149 247.1302 0002299 111.6754 248.4726 15.21096278 31249
LEMUR-2-LAILA           
1 66776U 25276DQ  26173.15412904  .00004512  00000+0  20470-3 0  9996
2 66776  97.4170 246.9685 0002514 128.7880 231.3581 15.21315842 31209
LEMUR-2-CELIJO-SB-PK    
1 66781U 25276DW  26173.43993850  .00004988  00000+0  40506-3 0  9996
2 66781  97.5238 244.0454 0008456 120.0467 240.1597 15.00031934 23414
