OBJECT_NAME,OBJECT_ID,EPOCH,MEAN_MOTION,ECCENTRICITY,INCLINATION,RA_OF_ASC_NODE,ARG_OF_PERICENTER,MEAN_ANOMALY,EPHEMERIS_TYPE,CLASSIFICATION_TYPE,NORAD_CAT_ID,ELEMENT_SET_NO,REV_AT_EPOCH,BSTAR,MEAN_MOTION_DOT,MEAN_MOTION_DDOT
LEMUR-2-ROUNDTRIPPER,2025-009DG,2026-06-22T11:36:04.751712,15.03863172,.00057171,97.7247,256.1558,117.0913,243.0896,0,U,62711,999,7842,.46949405E-3,.6405E-4,0
LEMUR-2-MYNAMEISJEFF,2025-009DH,2026-06-22T16:21:12.350016,15.03867406,.00040239,97.7294,256.7380,138.8001,221.3528,0,U,62712,999,7845,.43843119E-3,.5977E-4,0
LEMUR-2-LEIA-PHILIP,2025-052AN,2026-06-22T11:35:06.512928,14.97326147,.00031667,97.6828,65.3448,193.1412,166.9728,0,U,63246,999,6946,.51348778E-4,.538E-5,0
LEMUR-2-LIA-MARTIN,2025-052AQ,2026-06-22T10:03:40.692672,14.97832208,.00032981,97.6878,65.7646,150.1104,210.0307,0,U,63248,999,6946,.25097189E-3,.2893E-4,0
LEMUR-2-DELOITTE-1,2025-052BB,2026-06-22T11:06:52.599456,14.97637991,.00034541,97.6927,66.1372,85.3816,274.7800,0,U,63259,999,6948,.2480121E-3,.2843E-4,0
LEMUR-2-EMERSONROSE,2025-052BD,2026-06-22T11:59:47.312160,14.99109077,.0001814,97.6877,66.7413,74.5607,285.5816,0,U,63261,999,6953,.24134253E-3,.2874E-4,0
LEMUR-2-MARACHE-FRAN,2025-052BE,2026-06-22T06:30:51.623712,15.00139833,.00048865,97.6932,66.8440,2.8465,357.2785,0,U,63262,999,6952,.27680527E-3,.3396E-4,0
LEMUR-2-THEFALCONER,2025-052BG,2026-06-22T16:34:39.198144,14.97413124,.00019788,97.6849,65.9756,18.8556,341.2739,0,U,63264,999,6951,.19877663E-3,.2254E-4,0
LEMUR-2-UNTITLED-SC,2025-061A,2026-06-22T15:24:54.510048,15.13505962,.0017072,97.5637,148.9641,243.8371,116.1105,0,U,63351,999,6841,.13132134E-3,.2291E-4,0
LEMUR-2-ESPERANZA,2025-061B,2026-06-21T21:24:19.838592,15.13593116,.00166466,97.5644,148.3137,245.8481,114.1010,0,U,63352,999,6830,.14605498E-3,.2562E-4,0
LEMUR-2-KREMPEL-BRO2,2025-061C,2026-06-22T15:28:05.766816,15.14035741,.00177327,97.5692,149.6013,234.8649,125.0921,0,U,63353,999,6843,.13380459E-3,.2372E-4,0
LEMUR-2-THERMORAPTOR,2025-061D,2026-06-22T13:26:41.845920,15.14114910,.00174469,97.5696,149.5942,234.0711,125.8902,0,U,63354,999,6842,.15476053E-3,.276E-4,0
LEMUR-2-NEUROSPICY,2025-061E,2026-06-22T17:30:47.503008,15.14232766,.00152692,97.5622,149.3848,236.8231,123.1537,0,U,63355,999,6845,.15424822E-3,.2758E-4,0
LEMUR-2-TILLINFINITY,2025-061F,2026-06-22T19:53:36.824352,15.14817914,.00167222,97.5608,149.7777,223.7957,136.1950,0,U,63356,999,6849,.15730459E-3,.2863E-4,0
LEMUR-2-KREMPEL-BRO1,2025-061G,2026-06-22T16:06:11.302560,15.14622915,.00173518,97.5610,149.5353,225.8312,134.1494,0,U,63357,999,6846,.16095263E-3,.2916E-4,0
LEMUR-2-LANGER2SPACE,2025-061H,2026-06-22T04:04:42.543840,15.14315907,.00151277,97.5615,148.8492,237.2429,122.7346,0,U,63358,999,6837,.14192403E-3,.2538E-4,0
LEMUR-2-BALTO,2025-052BH,2026-06-22T12:33:04.423968,15.00136900,.00068123,97.6907,67.0687,44.1627,316.0140,0,U,63395,999,6956,.37435174E-3,.4615E-4,0
LEMUR-2-KRISH,2025-135AK,2026-06-22T06:58:35.817312,14.96246010,.00014486,97.7748,288.1321,95.6978,264.4409,0,U,64561,999,5468,.25768583E-3,.285E-4,0
LEMUR-2-HUBBLE-4,2025-135AP,2026-06-22T13:32:36.274272,14.93209681,.0000906,97.7703,287.4048,260.8622,99.2495,0,U,64565,999,5467,.78716999E-4,.766E-5,0
LEMUR-2-SEJONG-2,2025-135BL,2026-06-22T18:53:16.731744,14.96730485,.00032327,97.7683,288.7692,316.1250,43.9714,0,U,64586,999,5478,.28228087E-3,.3168E-4,0
LEMUR-2-HUBBLE-5,2025-135BT,2026-06-22T07:32:18.059424,14.94147176,.00046397,97.7721,287.8002,334.5529,25.5462,0,U,64840,999,5467,.11663647E-3,.1191E-4,0
LEMUR-2-KARENDARRELL,2025-135BU,2026-06-22T07:42:09.048384,15.00170832,.00101052,97.7677,289.5201,182.3814,177.7363,0,U,64841,999,5478,.469319E-3,.5809E-4,0
LEMUR-2-LUCILLE-ROSE,2025-135BV,2026-06-22T13:28:16.448736,15.00206464,.00118044,97.7754,289.7860,262.7012,97.2870,0,U,65403,999,4944,.38853701E-3,.4804E-4,0
LEMUR-2-AFFIE-WAUWIE,2025-248C,2026-06-22T11:38:06.760608,15.27320502,.00073274,45.3928,86.2834,120.6952,239.4660,0,U,66295,999,3540,.63600021E-3,.17084E-3,0
LEMUR-2-DEANANDMAEVE,2025-276N,2026-06-22T10:48:29.613600,15.19785277,.00051856,97.4210,246.8388,356.0746,4.0447,0,U,66678,999,3121,.21857328E-3,.4612E-4,0
LEMUR-2-STAS-GORBUK,2025-276W,2026-06-22T04:51:49.269312,15.19423763,.0004537,97.4242,246.6495,357.7923,2.3291,0,U,66686,999,3117,.20039955E-3,.4178E-4,0
LEMUR-2-TEODOR,2025-276DG,2026-06-22T10:39:28.164672,15.21096278,.0002299,97.4149,247.1302,111.6754,248.4726,0,U,66768,999,3124,.18717455E-3,.4093E-4,0
LEMUR-2-LAILA,2025-276DQ,2026-06-22T03:41:56.749056,15.21315842,.00025148,97.4170,246.9685,128.7880,231.3581,0,U,66776,999,3120,.20469819E-3,.4512E-4,0
LEMUR-2-CELIJO-SB-PK,2025-276DW,2026-06-22T10:33:30.686400,15.00031934,.00084565,97.5238,244.0454,120.0467,240.1597,0,U,66781,999,2341,.40505661E-3,.4988E-4,0
